58P/Jackson-Neujmin,e,13.0827,159.0236,200.5755,4.092146,0.1190632,0.66131807,254.7200,04/04.0/2026,2000,g 15.5,6.0
# From MPC191598
59P/Kearns-Kwee,e,9.3577,312.7262,127.7073,4.477696,0.1040213,0.47698888,285.9714,04/04.0/2026,2000,g  7.0,6.0
# From MPC191598
60P/Tsuchinshan,e,3.5798,267.3956,216.9205,3.529468,0.1486416,0.53368341,38.2585,04/04.0/2026,2000,g 11.5,6.0
# From MPC191598
61P/Shajn-Schaldach,e,5.9953,162.9530,221.7184,3.691517,0.1389622,0.42268228,174.9719,04/04.0/2026,2000,g  6.0,10.0
# From MPC191598
62P/Tsuchinshan,e,4.7358,68.6586,47.3563,3.371690,0.1591962,0.62472964,132.2384,04/04.0/2026,2000,g  8.0,10.0
# From MPEC 2026-FR0
63P/Wild,e,19.6182,357.7413,168.7366,5.656831,0.0732562,0.65087626,353.1771,04/04.0/2026,2000,g 10.5,6.0
# From MPC191598
64P/Swift-Gehrels,e,8.9550,299.7606,97.3398,4.452385,0.1049095,0.68816889,283.6963,04/04.0/2026,2000,g  9.5,12.0
# From MPC191598
65P/Gunn,e,9.1749,61.9680,213.6306,3.891267,0.1284007,0.24806589,37.4614,04/04.0/2026,2000,g  5.0,6.0
# From MPC191598
66P/duToit,e,18.6470,21.8650,257.3260,6.070579,0.0658960,0.78492959,190.1715,04/04.0/2026,2000,g 12.0,3.6
# From MPC191598
67P/Churyumov-Gerasimenko,e,3.8667,36.2964,22.2342,3.458810,0.1532195,0.64962413,247.1634,04/04.0/2026,2000,g 11.0,4.0
# From MPC191598
68P/Klemola,e,11.0965,175.0979,153.1821,4.964512,0.0891024,0.63560103,208.7429,04/04.0/2026,2000,g 10.0,4.0
# From MPC191599
69P/Taylor,e,22.0612,104.8062,343.5485,3.878823,0.1290191,0.41465443,331.2977,04/04.0/2026,2000,g  9.5,12.0
# From MPEC 2026-FR0
70P/Kojima,e,6.6037,119.2363,1.8201,3.674737,0.1399151,0.45496741,225.4079,04/04.0/2026,2000,g 11.0,6.0
# From MPC191599
71P/Clark,e,9.1778,58.8207,210.8884,3.187604,0.1731839,0.48126444,203.2876,04/04.0/2026,2000,g  9.8,6.0
# From MPC191599
73P/Schwassmann-Wachmann,e,6.2651,52.9215,214.1027,3.056890,0.1844099,0.70306804,244.3951,04/04.0/2026,2000,g 11.5,6.0
# From MPC106348
73P-BT/Schwassmann-Wachmann,e,6.2263,52.9797,213.9801,3.058283,0.1842840,0.70325081,244.1183,04/04.0/2026,2000,g 11.5,6.0
# From MPEC 2026-E44
74P/Smirnova-Chernykh,e,5.8707,49.7745,57.6797,5.175302,0.0837145,0.06533099,3.3596,04/04.0/2026,2000,g  5.0,6.0
# From MPEC 2026-FR0
76P/West-Kohoutek-Ikemura,e,30.4980,84.1091,0.0237,3.467446,0.1526474,0.53949115,358.5282,04/04.0/2026,2000,g  8.0,12.0
# From MPC191599
77P/Longmore,e,24.3330,14.7477,196.5847,3.619185,0.1431488,0.35215034,157.0285,04/04.0/2026,2000,g  7.0,8.0
# From MPEC 2026-E43
78P/Gehrels,e,6.2575,210.4945,192.7929,3.732077,0.1367031,0.46289938,348.7775,04/04.0/2026,2000,g  5.5,8.0
# From MPC191599
79P/duToit-Hartley,e,3.1489,280.4787,281.7695,2.941875,0.1953295,0.61964827,179.0213,04/04.0/2026,2000,g 16.0,4.0
# From MPC191600
81P/Wild,e,3.2389,136.1077,41.5461,3.450795,0.1537536,0.53799124,185.2260,04/04.0/2026,2000,g  7.0,6.0
# From MPC191600
82P/Gehrels,e,1.1292,239.2892,226.3193,4.134503,0.1172382,0.12344240,333.5907,04/04.0/2026,2000,g  5.0,8.0
# From MPC191600
84P/Giclas,e,7.5528,108.0798,281.7419,3.549927,0.1473584,0.51554535,313.6258,04/04.0/2026,2000,g  9.5,8.0
# From MPC191600
86P/Wild,e,15.4543,72.0676,180.9354,3.655956,0.1409947,0.35950308,215.5578,04/04.0/2026,2000,g 11.0,6.0
# From MPC191600
87P/Bus,e,3.8626,175.5103,63.6384,4.467669,0.1043717,0.19546012,236.4406,04/04.0/2026,2000,g  7.2,10.0
# From MPEC 2026-FR0
88P/Howell,e,4.3818,56.6688,235.8640,3.109062,0.1797877,0.56327764,2.9194,04/04.0/2026,2000,g 11.0,6.0
# From MPC191600
89P/Russell,e,12.0659,41.3371,250.4838,3.751978,0.1356168,0.40698621,100.1710,04/04.0/2026,2000,g 11.5,6.0
# From MPC191600
90P/Gehrels,e,9.6325,13.1428,29.2387,6.055990,0.0661342,0.51011006,212.0759,04/04.0/2026,2000,g  8.5,6.0
# From MPC191600
91P/Russell,e,15.9221,241.8525,356.8209,4.165225,0.1159435,0.25085719,251.5160,04/04.0/2026,2000,g  7.5,6.0
# From MPC191601
92P/Sanguin,e,19.4767,181.3319,163.7769,5.346272,0.0797310,0.65990636,322.7276,04/04.0/2026,2000,g 12.0,6.0
# From MPEC 2026-E44
93P/Lovas,e,12.2106,339.5497,75.0448,4.372117,0.1078118,0.61382782,356.8787,04/04.0/2026,2000,g  9.5,6.0
# From MPEC 2026-FR0
94P/Russell,e,6.1871,70.8345,92.3904,3.509511,0.1499113,0.36627370,157.1730,04/04.0/2026,2000,g  9.0,6.0
# From MPC191601
96P/Machholz,e,57.5749,93.9587,14.7429,3.030957,0.1867817,0.96173387,216.3594,04/04.0/2026,2000,g 13.0,4.8
# From MPC106348
96P-B/Machholz,e,57.5111,14.4824,94.0743,3.029965,0.1868735,0.96174909,216.5314,04/04.0/2026,2000,g 13.0,4.8
# From MPC191601
97P/Metcalf-Brewington,e,17.9306,184.0610,230.2448,4.771694,0.0945573,0.45953292,142.6307,04/04.0/2026,2000,g  5.5,6.0
# From MPC191601
98P/Takamizawa,e,10.9632,114.4881,159.5506,3.695751,0.1387235,0.59606556,256.1602,04/04.0/2026,2000,g  9.0,8.0
# From MPC191601
99P/Kowal,e,4.3396,28.0435,174.5052,6.092695,0.0655375,0.22905997,95.4170,04/04.0/2026,2000,g  4.5,6.0
# From MPC191601
100P/Hartley,e,25.5689,37.6862,181.8865,3.430187,0.1551413,0.41143844,206.8515,04/04.0/2026,2000,g  9.0,8.0
# From MPC191601
101P/Chernykh,e,5.0485,116.1116,278.0134,5.819693,0.0702027,0.59504537,159.6357,04/04.0/2026,2000,g 10.0,4.8
# From MPC191601
102P/Shoemaker,e,25.8441,339.3433,20.6955,3.821258,0.1319455,0.45570242,250.6434,04/04.0/2026,2000,g  6.5,8.0
# From MPC191602
103P/Hartley,e,13.6025,219.7630,181.3353,3.476336,0.1520622,0.69322401,137.5807,04/04.0/2026,2000,g  8.5,8.0
# From MPC191602
104P/Kowal,e,5.6997,207.1567,227.3401,3.208432,0.1715003,0.66580208,264.4796,04/04.0/2026,2000,g 16.0,4.0
# From MPC191602
105P/SingerBrewster,e,9.1686,192.3853,46.3044,3.472391,0.1523215,0.40919901,66.4578,04/04.0/2026,2000,g 11.5,6.0
# From MPC191602
106P/Schuster,e,19.5254,48.8645,353.8007,3.768967,0.1347009,0.59320810,227.5251,04/04.0/2026,2000,g 14.0,4.8
# From MPC191602
108P/Ciffreo,e,11.4297,50.2722,354.5649,3.744547,0.1360207,0.55535286,226.7176,04/04.0/2026,2000,g  8.0,12.0
# From MPC191602
110P/Hartley,e,11.7117,287.4816,167.6020,3.603184,0.1441035,0.31924176,234.4078,04/04.0/2026,2000,g  1.0,12.0
# From MPC191602
111P/Helin-Roman-Crockett,e,4.2261,89.7324,1.6233,4.153120,0.1164507,0.10710990,203.5582,04/04.0/2026,2000,g  5.0,8.0
# From MPC191602
112P/Urata-Niijima,e,24.2036,31.7958,21.5816,3.521382,0.1491538,0.59073678,334.5164,04/04.0/2026,2000,g 14.0,6.0
# From MPC191602
113P/Spitaler,e,5.2880,306.6094,115.7706,3.696959,0.1386555,0.41935581,194.4378,04/04.0/2026,2000,g 13.5,4.0
# From MPC191603
114P/Wiseman-Skiff,e,18.3034,271.0225,172.8454,3.538514,0.1480719,0.55610021,335.7172,04/04.0/2026,2000,g 11.5,6.0
# From MPC191603
115P/Maury,e,11.7056,175.8666,120.9894,4.268848,0.1117475,0.51918687,232.1617,04/04.0/2026,2000,g 10.5,6.0
# From MPC191603
116P/Wild,e,3.6054,20.9585,173.1499,3.484893,0.1515025,0.37112869,205.5611,04/04.0/2026,2000,g  2.5,10.0
# From MPEC 2026-E43
117P/Helin-Roman-Alu,e,8.6477,58.7361,225.0285,4.128800,0.1174812,0.24932821,160.4218,04/04.0/2026,2000,g  2.5,8.0
# From MPC191603
118P/Shoemaker-Levy,e,10.0936,142.0420,314.9875,3.349134,0.1608071,0.45375678,197.1452,04/04.0/2026,2000,g 12.0,4.0
# From MPC191603
119P/Parker-Hartley,e,7.3928,104.5411,322.3079,3.810709,0.1324937,0.38780645,176.3088,04/04.0/2026,2000,g  3.5,8.0
# From MPC191603
120P/Mueller,e,8.4783,358.6374,36.8496,3.971038,0.1245512,0.37374838,223.3231,04/04.0/2026,2000,g 12.0,4.0
# From MPC191603
121P/Shoemaker-Holt,e,20.1618,94.1058,12.1127,4.591537,0.1001768,0.18663089,100.9224,04/04.0/2026,2000,g  6.5,8.0
# From MPEC 2026-FR0
123P/West-Hartley,e,15.2831,45.8717,103.8915,3.887755,0.1285748,0.44479140,338.0176,04/04.0/2026,2000,g  4.0,10.0
# From MPEC 2026-FR0
124P/Mrkos,e,31.4049,359.9476,185.1176,3.377539,0.1587828,0.48632084,347.2032,04/04.0/2026,2000,g 13.5,2.8
# From MPC191604
125P/Spacewatch,e,9.9862,153.1532,87.0744,3.127001,0.1782428,0.51203846,135.0839,04/04.0/2026,2000,g 13.0,6.0
# From MPC191604
126P/IRAS,e,45.8742,357.8542,356.5386,5.624164,0.0738953,0.69578459,74.2171,04/04.0/2026,2000,g  6.0,8.0
# From MPC191604
127P/Holt-Olmstead,e,14.2910,13.6140,6.3360,3.455346,0.1534499,0.35837996,204.6388,04/04.0/2026,2000,g 11.0,6.0
# From MPEC 2026-E43
128P/Shoemaker-Holt,e,4.3717,214.3066,210.5598,4.480762,0.1039145,0.32225288,349.1906,04/04.0/2026,2000,g  8.5,4.0
# From MPC191604
129P/Shoemaker-Levy,e,3.4411,184.8323,308.0905,4.295018,0.1107278,0.08598522,134.6294,04/04.0/2026,2000,g 11.0,4.0
# From MPC191604
130P/McNaught-Hughes,e,5.9946,69.8468,247.3689,3.408016,0.1566577,0.45973930,112.4195,04/04.0/2026,2000,g 10.0,6.0
# From MPC191604
131P/Mueller,e,7.3623,214.1324,179.2771,3.673744,0.1399718,0.34459124,6.6161,04/04.0/2026,2000,g 11.0,4.0
# From MPC191604
132P/Helin-Roman-Alu,e,5.3757,173.9608,216.5273,3.893456,0.1282925,0.56360877,205.7289,04/04.0/2026,2000,g 11.0,6.0
# From MPC191604
134P/Kowal-Vavrova,e,4.3315,202.0182,18.5661,6.277809,0.0626602,0.58574039,273.8864,04/04.0/2026,2000,g 11.5,4.0
# From MPC191605
135P/Shoemaker-Levy,e,6.0616,213.0154,22.3062,3.802309,0.1329331,0.29319064,194.1157,04/04.0/2026,2000,g  7.0,8.0
# From MPEC 2026-E44
136P/Mueller,e,9.4290,137.3977,225.5366,4.190814,0.1148832,0.29357340,52.2337,04/04.0/2026,2000,g 11.0,4.0
# From MPC191605
137P/Shoemaker-Levy,e,4.8582,232.9303,141.1916,4.524823,0.1024004,0.57261571,273.1975,04/04.0/2026,2000,g 11.0,4.0
# From MPEC 2026-FR0
138P/Shoemaker-Levy,e,10.0984,309.2192,95.7594,3.615858,0.1433465,0.53143304,1.5295,04/04.0/2026,2000,g 15.0,6.0
# From MPC191605
139P/Vaisala-Oterma,e,2.3382,242.1257,166.0985,4.511854,0.1028423,0.24809747,311.1240,04/04.0/2026,2000,g  9.5,4.0
# From MPC191605
140P/Bowell-Skiff,e,3.6738,343.3483,172.1501,6.415486,0.0606540,0.69485337,238.0598,04/04.0/2026,2000,g 11.5,6.0
# From MPC191605
141P/Machholz,e,13.9603,241.7717,153.6503,3.056362,0.1844577,0.73580930,356.4967,04/04.0/2026,2000,g 12.0,12.0
# From MPEC 2015-KD9
141P-A/Machholz,e,13.9430,153.4939,241.9390,3.056834,0.1844150,0.73584785,356.4305,04/04.0/2026,2000,g 12.0,12.0
# From MPC 37026
141P-D/Machholz,e,13.8345,153.2187,242.1844,3.065003,0.1836782,0.73673496,351.8060,04/04.0/2026,2000,g 12.0,12.0
# From MPC186636
